{
  "norad_id": 53551,
  "name": "STARLINK-4514",
  "history": [
    {
      "epoch": "2026-03-28T22:58:01.908192Z",
      "apogee_km": 540.6392674783283,
      "perigee_km": 538.8734060251891,
      "latitude_deg": -1.412878241913189e-05,
      "longitude_deg": 166.74867349370234,
      "height_km": 540.60556158571,
      "semi_major_axis_km": 6917.893336751758,
      "eccentricity": 0.00012763,
      "inclination_deg": 53.2181,
      "raan_deg": 337.6266,
      "arg_perigee_deg": 86.9697,
      "mean_anomaly_deg": 273.1441,
      "mean_motion_rev_day": 15.08835764
    },
    {
      "epoch": "2026-03-29T02:08:47.494176Z",
      "apogee_km": 540.6154777867341,
      "perigee_km": 538.8043854600346,
      "latitude_deg": -4.161797991070206e-06,
      "longitude_deg": 118.33286891233591,
      "height_km": 540.5757498205367,
      "semi_major_axis_km": 6917.846931623384,
      "eccentricity": 0.0001309,
      "inclination_deg": 53.2178,
      "raan_deg": 337.0313,
      "arg_perigee_deg": 88.101,
      "mean_anomaly_deg": 272.0132,
      "mean_motion_rev_day": 15.08850946
    },
    {
      "epoch": "2026-03-30T01:59:36.968928Z",
      "apogee_km": 540.8003156834611,
      "perigee_km": 538.8051818599151,
      "latitude_deg": 4.945764849946891e-05,
      "longitude_deg": 115.18599991204344,
      "height_km": 541.0066140442929,
      "semi_major_axis_km": 6917.939748771688,
      "eccentricity": 0.0001442,
      "inclination_deg": 53.2188,
      "raan_deg": 332.5699,
      "arg_perigee_deg": 107.9868,
      "mean_anomaly_deg": 252.1282,
      "mean_motion_rev_day": 15.0882058
    },
    {
      "epoch": "2026-03-30T01:59:36.969792Z",
      "apogee_km": 540.8004540422553,
      "perigee_km": 538.80504350112,
      "latitude_deg": 4.770030520829774e-05,
      "longitude_deg": 115.18599499563163,
      "height_km": 541.0066567684341,
      "semi_major_axis_km": 6917.939748771688,
      "eccentricity": 0.00014422,
      "inclination_deg": 53.2188,
      "raan_deg": 332.5699,
      "arg_perigee_deg": 107.9868,
      "mean_anomaly_deg": 252.1282,
      "mean_motion_rev_day": 15.0882058
    },
    {
      "epoch": "2026-03-30T21:04:14.474784Z",
      "apogee_km": 540.6608988709258,
      "perigee_km": 538.8614152023174,
      "latitude_deg": 3.351774712991913e-05,
      "longitude_deg": -175.31975346034548,
      "height_km": 540.8258510970617,
      "semi_major_axis_km": 6917.898157036621,
      "eccentricity": 0.00013006,
      "inclination_deg": 53.2188,
      "raan_deg": 329.0039,
      "arg_perigee_deg": 100.8091,
      "mean_anomaly_deg": 259.3048,
      "mean_motion_rev_day": 15.08834187
    },
    {
      "epoch": "2026-03-31T20:55:01.616736Z",
      "apogee_km": 540.6650184873288,
      "perigee_km": 538.9161663919595,
      "latitude_deg": 3.0228852093586434e-05,
      "longitude_deg": -178.4552173527245,
      "height_km": 540.8074916935279,
      "semi_major_axis_km": 6917.927592439643,
      "eccentricity": 0.0001264,
      "inclination_deg": 53.2187,
      "raan_deg": 324.5442,
      "arg_perigee_deg": 97.9485,
      "mean_anomaly_deg": 262.1651,
      "mean_motion_rev_day": 15.08824557
    }
  ]
}